OBJECT_NAME,OBJECT_ID,EPOCH,MEAN_MOTION,ECCENTRICITY,INCLINATION,RA_OF_ASC_NODE,ARG_OF_PERICENTER,MEAN_ANOMALY,EPHEMERIS_TYPE,CLASSIFICATION_TYPE,NORAD_CAT_ID,ELEMENT_SET_NO,REV_AT_EPOCH,BSTAR,MEAN_MOTION_DOT,MEAN_MOTION_DDOT
STARLINK-36502,2026-020L,2026-06-30T11:21:50.875200,15.27585042,.00006363,42.9945,222.7357,325.4643,34.6167,0,U,67627,999,2336,.48236666E-3,.13037E-3,0
STARLINK-36532,2026-020M,2026-06-30T12:48:35.661312,15.27581860,.00008468,42.9995,222.3129,269.2322,90.8433,0,U,67628,999,2337,.65497817E-3,.17806E-3,0
STARLINK-36367,2026-020N,2026-06-30T14:13:29.863200,15.27614280,.0001193,42.9992,221.9022,285.0126,75.0594,0,U,67629,999,2338,.73724E-3,.20102E-3,0
STARLINK-36416,2026-020P,2026-06-30T11:32:56.816160,15.27579704,.0000546,43.0000,222.7876,346.9622,13.1215,0,U,67630,999,2336,.42653E-3,.11494E-3,0
STARLINK-36527,2026-020Q,2026-06-30T13:53:21.280992,15.27591236,.0001941,43.0008,222.6666,278.2769,81.7862,0,U,67631,999,2337,.59605E-3,.16182E-3,0
STARLINK-36633,2026-020R,2026-06-30T11:58:50.981952,15.27611528,.00009572,43.0020,222.9263,285.6978,74.3768,0,U,67632,999,2336,.46549928E-3,.12582E-3,0
STARLINK-36637,2026-020S,2026-06-29T19:49:31.516608,15.27595169,.00011935,42.9985,226.4724,282.6484,77.4234,0,U,67633,999,2326,.20359656E-3,.5347E-4,0
STARLINK-36617,2026-020T,2026-06-30T13:57:05.736096,15.27578885,.0003647,43.0010,222.6861,24.3879,335.7144,0,U,67634,999,2337,.59063E-3,.16027E-3,0
STARLINK-36627,2026-020U,2026-06-30T11:20:00.041280,15.27584143,.00009474,42.9984,222.7203,23.5780,336.5115,0,U,67635,999,2336,.46269266E-3,.12493E-3,0
STARLINK-36624,2026-020V,2026-06-30T12:28:13.710432,15.27597324,.00017251,43.0012,222.2064,292.9017,67.1653,0,U,67636,999,2337,.62088622E-3,.16872E-3,0
STARLINK-36610,2026-020W,2026-06-30T11:25:32.527488,15.27585140,.00007048,42.9984,222.7456,266.8089,93.2682,0,U,67637,999,2336,.55493998E-3,.15042E-3,0
STARLINK-36599,2026-020X,2026-06-30T12:17:20.889312,15.27599356,.00022709,43.0022,223.0184,263.9809,96.0784,0,U,67638,999,2336,.61412402E-3,.16686E-3,0
STARLINK-36595,2026-020Y,2026-06-28T14:06:06.302880,15.27610396,.00015137,43.0005,233.5061,256.9805,103.0878,0,U,67639,999,2307,.36250652E-3,.9736E-4,0
STARLINK-36570,2026-020Z,2026-06-30T11:10:43.933728,15.27575208,.00019728,42.9976,222.6699,248.5789,111.4852,0,U,67640,999,2336,.17030678E-3,.4426E-4,0
STARLINK-36514,2026-020AA,2026-06-30T12:13:38.677152,15.27591590,.00018285,43.0026,222.9940,264.7284,95.3359,0,U,67641,999,2336,.57341503E-3,.15556E-3,0
STARLINK-36556,2026-020AB,2026-06-30T12:08:05.534304,15.27583654,.00021311,43.0025,222.9708,258.0319,102.0293,0,U,67642,999,2336,.42904345E-3,.11564E-3,0
STARLINK-36533,2026-020AC,2026-06-30T12:50:26.839104,15.27578159,.0001252,42.9992,222.3337,255.8351,104.2361,0,U,67643,999,2337,.60894E-3,.16531E-3,0
STARLINK-36623,2026-020AD,2026-06-30T12:35:39.169824,15.27595396,.00014105,42.9999,222.2508,27.0976,332.9949,0,U,67644,999,2337,.64680522E-3,.17587E-3,0
STARLINK-36619,2026-020AE,2026-06-30T14:07:59.556000,15.27555732,.0001878,42.9993,221.8696,15.9976,344.0935,0,U,67645,999,2338,.75792E-3,.20637E-3,0
STARLINK-36719,2026-022A,2026-06-30T00:38:23.685792,15.33456339,.00014865,97.2832,213.6987,118.1454,241.9940,0,U,67648,999,2278,.53147342E-3,.17128E-3,0
STARLINK-36342,2026-022B,2026-06-30T02:10:34.428000,15.33457429,.00007846,97.2831,214.8310,99.4504,260.6828,0,U,67649,999,2286,.58015818E-3,.18708E-3,0
STARLINK-36703,2026-022C,2026-06-30T10:49:10.140384,15.33436083,.00016058,97.2839,214.1917,346.4956,13.6244,0,U,67650,999,2285,.56114531E-3,.18079E-3,0
STARLINK-36696,2026-022D,2026-06-30T12:46:38.571168,15.33458670,.00004598,97.2836,214.2332,107.6083,252.5210,0,U,67651,999,2286,.87871419E-3,.28412E-3,0
STARLINK-36699,2026-022E,2026-06-30T13:33:39.366144,15.33428490,.000154,97.2826,214.3448,86.0774,274.0645,0,U,67652,999,2287,.99165E-3,.32059E-3,0
STARLINK-36694,2026-022F,2026-06-30T02:00:37.055808,15.33444622,.00007638,97.2808,213.7737,102.3586,257.7743,0,U,67653,999,2279,.36070814E-3,.11588E-3,0
STARLINK-36620,2026-022G,2026-06-30T01:37:06.980160,15.33441541,.00011721,97.2831,213.7945,108.6149,251.5221,0,U,67654,999,2279,.1295994E-3,.4111E-4,0
STARLINK-36720,2026-022H,2026-06-29T23:39:39.328704,15.33460510,.00006101,97.2842,213.7563,103.8024,256.3287,0,U,67655,999,2278,.72994308E-3,.23575E-3,0
STARLINK-36688,2026-022J,2026-06-30T02:24:06.374592,15.33456942,.0001124,97.2833,213.9054,123.1562,236.9788,0,U,67656,999,2280,.54401277E-3,.17535E-3,0
STARLINK-36706,2026-022K,2026-06-30T01:52:47.013888,15.33456553,.00006913,97.2837,213.7816,117.3434,242.7880,0,U,67657,999,2279,.51192571E-3,.16494E-3,0
STARLINK-36701,2026-022L,2026-06-30T01:41:02.166144,15.33461167,.00011341,97.2833,213.7928,134.2608,225.8728,0,U,67658,999,2279,.63956143E-3,.20639E-3,0
