[
  {
    "name": "STARLINK-36502",
    "noradId": "67627",
    "line1": "1 67627U 26020L   26181.47350550  .00013037  00000+0  48237-3 0  9995",
    "line2": "2 67627  42.9945 222.7357 0000636 325.4643  34.6167 15.27585042 23363"
  },
  {
    "name": "STARLINK-36532",
    "noradId": "67628",
    "line1": "1 67628U 26020M   26181.53374608  .00017806  00000+0  65498-3 0  9999",
    "line2": "2 67628  42.9995 222.3129 0000846 269.2322  90.8433 15.27581860 23379"
  },
  {
    "name": "STARLINK-36367",
    "noradId": "67629",
    "line1": "1 67629U 26020N   26181.59270675  .00020102  00000+0  73724-3 0  9999",
    "line2": "2 67629  42.9992 221.9022 0001193 285.0126  75.0594 15.27614280 23385"
  },
  {
    "name": "STARLINK-36416",
    "noradId": "67630",
    "line1": "1 67630U 26020P   26181.48121315  .00011494  00000+0  42653-3 0  9996",
    "line2": "2 67630  43.0000 222.7876 0000546 346.9622  13.1215 15.27579704 23366"
  },
  {
    "name": "STARLINK-36527",
    "noradId": "67631",
    "line1": "1 67631U 26020Q   26181.57871853  .00016182  00000+0  59605-3 0  9990",
    "line2": "2 67631  43.0008 222.6666 0001941 278.2769  81.7862 15.27591236 23374"
  },
  {
    "name": "STARLINK-36633",
    "noradId": "67632",
    "line1": "1 67632U 26020R   26181.49920118  .00012582  00000+0  46550-3 0  9996",
    "line2": "2 67632  43.0020 222.9263 0000957 285.6978  74.3768 15.27611528 23364"
  },
  {
    "name": "STARLINK-36637",
    "noradId": "67633",
    "line1": "1 67633U 26020S   26180.82605922  .00005347  00000+0  20360-3 0  9998",
    "line2": "2 67633  42.9985 226.4724 0001193 282.6484  77.4234 15.27595169 23269"
  },
  {
    "name": "STARLINK-36617",
    "noradId": "67634",
    "line1": "1 67634U 26020T   26181.58131639  .00016027  00000+0  59063-3 0  9991",
    "line2": "2 67634  43.0010 222.6861 0003647  24.3879 335.7144 15.27578885 23374"
  },
  {
    "name": "STARLINK-36627",
    "noradId": "67635",
    "line1": "1 67635U 26020U   26181.47222270  .00012493  00000+0  46269-3 0  9999",
    "line2": "2 67635  42.9984 222.7203 0000947  23.5780 336.5115 15.27584143 23366"
  },
  {
    "name": "STARLINK-36624",
    "noradId": "67636",
    "line1": "1 67636U 26020V   26181.51960313  .00016872  00000+0  62089-3 0  9995",
    "line2": "2 67636  43.0012 222.2064 0001725 292.9017  67.1653 15.27597324 23371"
  },
  {
    "name": "STARLINK-36610",
    "noradId": "67637",
    "line1": "1 67637U 26020W   26181.47607092  .00015042  00000+0  55494-3 0  9993",
    "line2": "2 67637  42.9984 222.7456 0000704 266.8089  93.2682 15.27585140 23367"
  },
  {
    "name": "STARLINK-36599",
    "noradId": "67638",
    "line1": "1 67638U 26020X   26181.51204733  .00016686  00000+0  61412-3 0  9996",
    "line2": "2 67638  43.0022 223.0184 0002270 263.9809  96.0784 15.27599356 23361"
  },
  {
    "name": "STARLINK-36595",
    "noradId": "67639",
    "line1": "1 67639U 26020Y   26179.58757295  .00009736  00000+0  36251-3 0  9998",
    "line2": "2 67639  43.0005 233.5061 0001513 256.9805 103.0878 15.27610396 23079"
  },
  {
    "name": "STARLINK-36570",
    "noradId": "67640",
    "line1": "1 67640U 26020Z   26181.46578627  .00004426  00000+0  17031-3 0  9996",
    "line2": "2 67640  42.9976 222.6699 0001972 248.5789 111.4852 15.27575208 23368"
  },
  {
    "name": "STARLINK-36514",
    "noradId": "67641",
    "line1": "1 67641U 26020AA  26181.50947543  .00015556  00000+0  57342-3 0  9994",
    "line2": "2 67641  43.0026 222.9940 0001828 264.7284  95.3359 15.27591590 23363"
  },
  {
    "name": "STARLINK-36556",
    "noradId": "67642",
    "line1": "1 67642U 26020AB  26181.50561961  .00011564  00000+0  42904-3 0  9994",
    "line2": "2 67642  43.0025 222.9708 0002131 258.0319 102.0293 15.27583654 23363"
  },
  {
    "name": "STARLINK-36533",
    "noradId": "67643",
    "line1": "1 67643U 26020AC  26181.53503286  .00016531  00000+0  60894-3 0  9991",
    "line2": "2 67643  42.9992 222.3337 0001252 255.8351 104.2361 15.27578159 23376"
  },
  {
    "name": "STARLINK-36623",
    "noradId": "67644",
    "line1": "1 67644U 26020AD  26181.52475891  .00017587  00000+0  64681-3 0  9991",
    "line2": "2 67644  42.9999 222.2508 0001410  27.0976 332.9949 15.27595396 23375"
  },
  {
    "name": "STARLINK-36619",
    "noradId": "67645",
    "line1": "1 67645U 26020AE  26181.58888375  .00020637  00000+0  75792-3 0  9998",
    "line2": "2 67645  42.9993 221.8696 0001878  15.9976 344.0935 15.27555732 23387"
  },
  {
    "name": "STARLINK-36719",
    "noradId": "67648",
    "line1": "1 67648U 26022A   26181.02666303  .00017128  00000+0  53147-3 0  9998",
    "line2": "2 67648  97.2832 213.6987 0001486 118.1454 241.9940 15.33456339 22783"
  },
  {
    "name": "STARLINK-36342",
    "noradId": "67649",
    "line1": "1 67649U 26022B   26181.09067625  .00018708  00000+0  58016-3 0  9993",
    "line2": "2 67649  97.2831 214.8310 0000784  99.4504 260.6828 15.33457429 22866"
  },
  {
    "name": "STARLINK-36703",
    "noradId": "67650",
    "line1": "1 67650U 26022C   26181.45081181  .00018079  00000+0  56115-3 0  9997",
    "line2": "2 67650  97.2839 214.1917 0001605 346.4956  13.6244 15.33436083 22851"
  },
  {
    "name": "STARLINK-36696",
    "noradId": "67651",
    "line1": "1 67651U 26022D   26181.53239087  .00028412  00000+0  87871-3 0  9992",
    "line2": "2 67651  97.2836 214.2332 0000459 107.6083 252.5210 15.33458670 22869"
  },
  {
    "name": "STARLINK-36699",
    "noradId": "67652",
    "line1": "1 67652U 26022E   26181.56503896  .00032059  00000+0  99165-3 0  9999",
    "line2": "2 67652  97.2826 214.3448 0001540  86.0774 274.0645 15.33428490 22876"
  },
  {
    "name": "STARLINK-36694",
    "noradId": "67653",
    "line1": "1 67653U 26022F   26181.08376222  .00011588  00000+0  36071-3 0  9999",
    "line2": "2 67653  97.2808 213.7737 0000763 102.3586 257.7743 15.33444622 22793"
  },
  {
    "name": "STARLINK-36620",
    "noradId": "67654",
    "line1": "1 67654U 26022G   26181.06744190  .00004111  00000+0  12960-3 0  9996",
    "line2": "2 67654  97.2831 213.7945 0001172 108.6149 251.5221 15.33441541 22790"
  },
  {
    "name": "STARLINK-36720",
    "noradId": "67655",
    "line1": "1 67655U 26022H   26180.98587186  .00023575  00000+0  72994-3 0  9995",
    "line2": "2 67655  97.2842 213.7563 0000610 103.8024 256.3287 15.33460510 22785"
  },
  {
    "name": "STARLINK-36688",
    "noradId": "67656",
    "line1": "1 67656U 26022J   26181.10007378  .00017535  00000+0  54401-3 0  9993",
    "line2": "2 67656  97.2833 213.9054 0001124 123.1562 236.9788 15.33456942 22803"
  },
  {
    "name": "STARLINK-36706",
    "noradId": "67657",
    "line1": "1 67657U 26022K   26181.07832192  .00016494  00000+0  51193-3 0  9998",
    "line2": "2 67657  97.2837 213.7816 0000691 117.3434 242.7880 15.33456553 22797"
  },
  {
    "name": "STARLINK-36701",
    "noradId": "67658",
    "line1": "1 67658U 26022L   26181.07016396  .00020639  00000+0  63956-3 0  9995",
    "line2": "2 67658  97.2833 213.7928 0001134 134.2608 225.8728 15.33461167 22792"
  }
]